ADRAS-J                 
1 58992U 24034A   24073.18626421  .00006629  00000+0  51613-3 0  9993
2 58992  98.2031  41.9435 0045931   7.2700 352.9178 15.00767981  3532
